[{"OBJECT_NAME":"GHOST-5","OBJECT_ID":"2024-043AJ","EPOCH":"2026-03-09T22:12:39.602304","MEAN_MOTION":15.40053236,"ECCENTRICITY":0.00079958,"INCLINATION":97.5429,"RA_OF_ASC_NODE":210.0004,"ARG_OF_PERICENTER":209.6762,"MEAN_ANOMALY":150.4031,"EPHEMERIS_TYPE":0,"CLASSIFICATION_TYPE":"U","NORAD_CAT_ID":59130,"ELEMENT_SET_NO":999,"REV_AT_EPOCH":11222,"BSTAR":0.00046979061,"MEAN_MOTION_DOT":0.00018732,"MEAN_MOTION_DDOT":0},{"OBJECT_NAME":"CZ-4C R\/B","OBJECT_ID":"2022-069B","EPOCH":"2026-03-09T22:08:25.149120","MEAN_MOTION":15.31915595,"ECCENTRICITY":0.00471341,"INCLINATION":97.9961,"RA_OF_ASC_NODE":42.6953,"ARG_OF_PERICENTER":87.2467,"MEAN_ANOMALY":273.4166,"EPHEMERIS_TYPE":0,"CLASSIFICATION_TYPE":"U","NORAD_CAT_ID":52913,"ELEMENT_SET_NO":999,"REV_AT_EPOCH":20482,"BSTAR":0.00043675127,"MEAN_MOTION_DOT":0.00013855,"MEAN_MOTION_DDOT":0}]
